[{"OBJECT_NAME":"OBJECT C","OBJECT_ID":"2023-104C","EPOCH":"2026-03-09T22:39:44.230752","MEAN_MOTION":15.26846312,"ECCENTRICITY":0.00113074,"INCLINATION":97.273,"RA_OF_ASC_NODE":135.3333,"ARG_OF_PERICENTER":3.876,"MEAN_ANOMALY":356.2565,"EPHEMERIS_TYPE":0,"CLASSIFICATION_TYPE":"U","NORAD_CAT_ID":57426,"ELEMENT_SET_NO":999,"REV_AT_EPOCH":14663,"BSTAR":0.00062618506,"MEAN_MOTION_DOT":0.00016495,"MEAN_MOTION_DDOT":0},{"OBJECT_NAME":"STARLINK-33886","OBJECT_ID":"2025-085T","EPOCH":"2026-03-09T06:48:49.690080","MEAN_MOTION":15.27564387,"ECCENTRICITY":0.00013958,"INCLINATION":43.0039,"RA_OF_ASC_NODE":32.7072,"ARG_OF_PERICENTER":276.5494,"MEAN_ANOMALY":83.5198,"EPHEMERIS_TYPE":0,"CLASSIFICATION_TYPE":"U","NORAD_CAT_ID":63681,"ELEMENT_SET_NO":999,"REV_AT_EPOCH":4881,"BSTAR":0.00074586508,"MEAN_MOTION_DOT":0.00020309,"MEAN_MOTION_DDOT":0}]
